STARLINK-34898          
1 65895U 25224P   25300.83334491 -.01975695  00000+0 -28090-1 0  9996
2 65895  53.1596 270.7723 0001349 110.0831 141.3250 15.59246099  4520
STARLINK-34906          
1 65896U 25224Q   25300.83334491 -.01974853  00000+0 -28077-1 0  9997
2 65896  53.1595 270.7765 0001295 103.1280 146.3631 15.59245874  4525
STARLINK-34934          
1 65897U 25224R   25300.83334491 -.01974091  00000+0 -28065-1 0  9999
2 65897  53.1598 270.7644 0001378 112.7241 142.5182 15.59244758  4473
STARLINK-34936          
1 65898U 25224S   25300.83334491 -.01983819  00000+0 -28218-1 0  9998
2 65898  53.1599 270.7684 0001337 103.2101 150.1156 15.59250299  4523
STARLINK-35272          
1 65899U 25224T   25300.83334491 -.01968842  00000+0 -27986-1 0  9999
2 65899  53.1595 270.7595 0001125 103.3100 153.8494 15.59242009  4510
STARLINK-35264          
1 65900U 25224U   25300.83334491 -.01975764  00000+0 -28091-1 0  9991
2 65900  53.1595 270.7560 0001294 108.2479 150.8270 15.59246817  4515
STARLINK-35249          
1 65901U 25224V   25300.83334491 -.01975209  00000+0 -28084-1 0  9998
2 65901  53.1595 270.7521 0001314 111.6825 149.3109 15.59245316  4505
STARLINK-35278          
1 65902U 25224W   25300.83334491 -.01976887  00000+0 -28111-1 0  9993
2 65902  53.1598 270.7398 0001165 112.2492 154.4942 15.59246954  4525
STARLINK-35210          
1 65903U 25224X   25300.83334491 -.01971199  00000+0 -28020-1 0  9994
2 65903  53.1599 270.7440 0001335 108.4360 156.3897 15.59243696  4503
STARLINK-35348          
1 65904U 25224Y   25300.83334491 -.01971649  00000+0 -28028-1 0  9993
2 65904  53.1598 270.7481 0001342 109.6928 153.2182 15.59242821  4488
STARLINK-35380          
1 65905U 25224Z   25300.83334491 -.01973952  00000+0 -28064-1 0  9993
2 65905  53.1597 270.7370 0001257 102.4397 166.2197 15.59245407  4484
STARLINK-35385          
1 65906U 25224AA  25300.83334491 -.01977420  00000+0 -28118-1 0  9998
2 65906  53.1599 270.7285 0001309 104.6940 167.7996 15.59246723  4506
