CCSDS_OMM_VERS = 2.0
CREATION_DATE  = 
ORIGINATOR     = 

OBJECT_NAME    = STARLINK-34898
OBJECT_ID      = 2025-224P
CENTER_NAME    = EARTH
REF_FRAME      = TEME
TIME_SYSTEM    = UTC
MEAN_ELEMENT_THEORY = SGP/SGP4

EPOCH          = 2025-10-27T20:00:01.000224
MEAN_MOTION    = 15.59246099
ECCENTRICITY   = .00013495
INCLINATION    = 53.1596
RA_OF_ASC_NODE = 270.7723
ARG_OF_PERICENTER = 110.0831
MEAN_ANOMALY   = 141.3250

EPHEMERIS_TYPE = 0
CLASSIFICATION_TYPE = U
NORAD_CAT_ID   = 65895
ELEMENT_SET_NO = 999
REV_AT_EPOCH   = 452
BSTAR          = -.28090254E-1
MEAN_MOTION_DOT = -.1975695E-1
MEAN_MOTION_DDOT = 0

CCSDS_OMM_VERS = 2.0
CREATION_DATE  = 
ORIGINATOR     = 

OBJECT_NAME    = STARLINK-34906
OBJECT_ID      = 2025-224Q
CENTER_NAME    = EARTH
REF_FRAME      = TEME
TIME_SYSTEM    = UTC
MEAN_ELEMENT_THEORY = SGP/SGP4

EPOCH          = 2025-10-27T20:00:01.000224
MEAN_MOTION    = 15.59245874
ECCENTRICITY   = .00012951
INCLINATION    = 53.1595
RA_OF_ASC_NODE = 270.7765
ARG_OF_PERICENTER = 103.1280
MEAN_ANOMALY   = 146.3631

EPHEMERIS_TYPE = 0
CLASSIFICATION_TYPE = U
NORAD_CAT_ID   = 65896
ELEMENT_SET_NO = 999
REV_AT_EPOCH   = 452
BSTAR          = -.28077474E-1
MEAN_MOTION_DOT = -.1974853E-1
MEAN_MOTION_DDOT = 0

CCSDS_OMM_VERS = 2.0
CREATION_DATE  = 
ORIGINATOR     = 

OBJECT_NAME    = STARLINK-34934
OBJECT_ID      = 2025-224R
CENTER_NAME    = EARTH
REF_FRAME      = TEME
TIME_SYSTEM    = UTC
MEAN_ELEMENT_THEORY = SGP/SGP4

EPOCH          = 2025-10-27T20:00:01.000224
MEAN_MOTION    = 15.59244758
ECCENTRICITY   = .00013786
INCLINATION    = 53.1598
RA_OF_ASC_NODE = 270.7644
ARG_OF_PERICENTER = 112.7241
MEAN_ANOMALY   = 142.5182

EPHEMERIS_TYPE = 0
CLASSIFICATION_TYPE = U
NORAD_CAT_ID   = 65897
ELEMENT_SET_NO = 999
REV_AT_EPOCH   = 447
BSTAR          = -.28065395E-1
MEAN_MOTION_DOT = -.1974091E-1
MEAN_MOTION_DDOT = 0

CCSDS_OMM_VERS = 2.0
CREATION_DATE  = 
ORIGINATOR     = 

OBJECT_NAME    = STARLINK-34936
OBJECT_ID      = 2025-224S
CENTER_NAME    = EARTH
REF_FRAME      = TEME
TIME_SYSTEM    = UTC
MEAN_ELEMENT_THEORY = SGP/SGP4

EPOCH          = 2025-10-27T20:00:01.000224
MEAN_MOTION    = 15.59250299
ECCENTRICITY   = .00013375
INCLINATION    = 53.1599
RA_OF_ASC_NODE = 270.7684
ARG_OF_PERICENTER = 103.2101
MEAN_ANOMALY   = 150.1156

EPHEMERIS_TYPE = 0
CLASSIFICATION_TYPE = U
NORAD_CAT_ID   = 65898
ELEMENT_SET_NO = 999
REV_AT_EPOCH   = 452
BSTAR          = -.28217578E-1
MEAN_MOTION_DOT = -.1983819E-1
MEAN_MOTION_DDOT = 0

CCSDS_OMM_VERS = 2.0
CREATION_DATE  = 
ORIGINATOR     = 

OBJECT_NAME    = STARLINK-35272
OBJECT_ID      = 2025-224T
CENTER_NAME    = EARTH
REF_FRAME      = TEME
TIME_SYSTEM    = UTC
MEAN_ELEMENT_THEORY = SGP/SGP4

EPOCH          = 2025-10-27T20:00:01.000224
MEAN_MOTION    = 15.59242009
ECCENTRICITY   = .00011252
INCLINATION    = 53.1595
RA_OF_ASC_NODE = 270.7595
ARG_OF_PERICENTER = 103.3100
MEAN_ANOMALY   = 153.8494

EPHEMERIS_TYPE = 0
CLASSIFICATION_TYPE = U
NORAD_CAT_ID   = 65899
ELEMENT_SET_NO = 999
REV_AT_EPOCH   = 451
BSTAR          = -.27986195E-1
MEAN_MOTION_DOT = -.1968842E-1
MEAN_MOTION_DDOT = 0

CCSDS_OMM_VERS = 2.0
CREATION_DATE  = 
ORIGINATOR     = 

OBJECT_NAME    = STARLINK-35264
OBJECT_ID      = 2025-224U
CENTER_NAME    = EARTH
REF_FRAME      = TEME
TIME_SYSTEM    = UTC
MEAN_ELEMENT_THEORY = SGP/SGP4

EPOCH          = 2025-10-27T20:00:01.000224
MEAN_MOTION    = 15.59246817
ECCENTRICITY   = .00012943
INCLINATION    = 53.1595
RA_OF_ASC_NODE = 270.7560
ARG_OF_PERICENTER = 108.2479
MEAN_ANOMALY   = 150.8270

EPHEMERIS_TYPE = 0
CLASSIFICATION_TYPE = U
NORAD_CAT_ID   = 65900
ELEMENT_SET_NO = 999
REV_AT_EPOCH   = 451
BSTAR          = -.28091242E-1
MEAN_MOTION_DOT = -.1975764E-1
MEAN_MOTION_DDOT = 0

CCSDS_OMM_VERS = 2.0
CREATION_DATE  = 
ORIGINATOR     = 

OBJECT_NAME    = STARLINK-35249
OBJECT_ID      = 2025-224V
CENTER_NAME    = EARTH
REF_FRAME      = TEME
TIME_SYSTEM    = UTC
MEAN_ELEMENT_THEORY = SGP/SGP4

EPOCH          = 2025-10-27T20:00:01.000224
MEAN_MOTION    = 15.59245316
ECCENTRICITY   = .00013146
INCLINATION    = 53.1595
RA_OF_ASC_NODE = 270.7521
ARG_OF_PERICENTER = 111.6825
MEAN_ANOMALY   = 149.3109

EPHEMERIS_TYPE = 0
CLASSIFICATION_TYPE = U
NORAD_CAT_ID   = 65901
ELEMENT_SET_NO = 999
REV_AT_EPOCH   = 450
BSTAR          = -.28083623E-1
MEAN_MOTION_DOT = -.1975209E-1
MEAN_MOTION_DDOT = 0

CCSDS_OMM_VERS = 2.0
CREATION_DATE  = 
ORIGINATOR     = 

OBJECT_NAME    = STARLINK-35278
OBJECT_ID      = 2025-224W
CENTER_NAME    = EARTH
REF_FRAME      = TEME
TIME_SYSTEM    = UTC
MEAN_ELEMENT_THEORY = SGP/SGP4

EPOCH          = 2025-10-27T20:00:01.000224
MEAN_MOTION    = 15.59246954
ECCENTRICITY   = .0001165
INCLINATION    = 53.1598
RA_OF_ASC_NODE = 270.7398
ARG_OF_PERICENTER = 112.2492
MEAN_ANOMALY   = 154.4942

EPHEMERIS_TYPE = 0
CLASSIFICATION_TYPE = U
NORAD_CAT_ID   = 65902
ELEMENT_SET_NO = 999
REV_AT_EPOCH   = 452
BSTAR          = -.28110767E-1
MEAN_MOTION_DOT = -.1976887E-1
MEAN_MOTION_DDOT = 0

CCSDS_OMM_VERS = 2.0
CREATION_DATE  = 
ORIGINATOR     = 

OBJECT_NAME    = STARLINK-35210
OBJECT_ID      = 2025-224X
CENTER_NAME    = EARTH
REF_FRAME      = TEME
TIME_SYSTEM    = UTC
MEAN_ELEMENT_THEORY = SGP/SGP4

EPOCH          = 2025-10-27T20:00:01.000224
MEAN_MOTION    = 15.59243696
ECCENTRICITY   = .00013352
INCLINATION    = 53.1599
RA_OF_ASC_NODE = 270.7440
ARG_OF_PERICENTER = 108.4360
MEAN_ANOMALY   = 156.3897

EPHEMERIS_TYPE = 0
CLASSIFICATION_TYPE = U
NORAD_CAT_ID   = 65903
ELEMENT_SET_NO = 999
REV_AT_EPOCH   = 450
BSTAR          = -.2802019E-1
MEAN_MOTION_DOT = -.1971199E-1
MEAN_MOTION_DDOT = 0

CCSDS_OMM_VERS = 2.0
CREATION_DATE  = 
ORIGINATOR     = 

OBJECT_NAME    = STARLINK-35348
OBJECT_ID      = 2025-224Y
CENTER_NAME    = EARTH
REF_FRAME      = TEME
TIME_SYSTEM    = UTC
MEAN_ELEMENT_THEORY = SGP/SGP4

EPOCH          = 2025-10-27T20:00:01.000224
MEAN_MOTION    = 15.59242821
ECCENTRICITY   = .00013428
INCLINATION    = 53.1598
RA_OF_ASC_NODE = 270.7481
ARG_OF_PERICENTER = 109.6928
MEAN_ANOMALY   = 153.2182

EPHEMERIS_TYPE = 0
CLASSIFICATION_TYPE = U
NORAD_CAT_ID   = 65904
ELEMENT_SET_NO = 999
REV_AT_EPOCH   = 448
BSTAR          = -.28028326E-1
MEAN_MOTION_DOT = -.1971649E-1
MEAN_MOTION_DDOT = 0

CCSDS_OMM_VERS = 2.0
CREATION_DATE  = 
ORIGINATOR     = 

OBJECT_NAME    = STARLINK-35380
OBJECT_ID      = 2025-224Z
CENTER_NAME    = EARTH
REF_FRAME      = TEME
TIME_SYSTEM    = UTC
MEAN_ELEMENT_THEORY = SGP/SGP4

EPOCH          = 2025-10-27T20:00:01.000224
MEAN_MOTION    = 15.59245407
ECCENTRICITY   = .00012576
INCLINATION    = 53.1597
RA_OF_ASC_NODE = 270.7370
ARG_OF_PERICENTER = 102.4397
MEAN_ANOMALY   = 166.2197

EPHEMERIS_TYPE = 0
CLASSIFICATION_TYPE = U
NORAD_CAT_ID   = 65905
ELEMENT_SET_NO = 999
REV_AT_EPOCH   = 448
BSTAR          = -.2806382E-1
MEAN_MOTION_DOT = -.1973952E-1
MEAN_MOTION_DDOT = 0

CCSDS_OMM_VERS = 2.0
CREATION_DATE  = 
ORIGINATOR     = 

OBJECT_NAME    = STARLINK-35385
OBJECT_ID      = 2025-224AA
CENTER_NAME    = EARTH
REF_FRAME      = TEME
TIME_SYSTEM    = UTC
MEAN_ELEMENT_THEORY = SGP/SGP4

EPOCH          = 2025-10-27T20:00:01.000224
MEAN_MOTION    = 15.59246723
ECCENTRICITY   = .00013099
INCLINATION    = 53.1599
RA_OF_ASC_NODE = 270.7285
ARG_OF_PERICENTER = 104.6940
MEAN_ANOMALY   = 167.7996

EPHEMERIS_TYPE = 0
CLASSIFICATION_TYPE = U
NORAD_CAT_ID   = 65906
ELEMENT_SET_NO = 999
REV_AT_EPOCH   = 450
BSTAR          = -.28118005E-1
MEAN_MOTION_DOT = -.197742E-1
MEAN_MOTION_DDOT = 0

